{
    "links": {
        "self": "http://www.neowsapp.com/rest/v1/neo/3766336?api_key=iIulBulltgU6a56xZRHN4H3l9WmuAYTsLGpBGhQ2"
    },
    "id": "3766336",
    "neo_reference_id": "3766336",
    "name": "(2017 AO4)",
    "designation": "2017 AO4",
    "nasa_jpl_url": "http://ssd.jpl.nasa.gov/sbdb.cgi?sstr=3766336",
    "absolute_magnitude_h": 24.9,
    "estimated_diameter": {
        "kilometers": {
            "estimated_diameter_min": 0.0278326768,
            "estimated_diameter_max": 0.0622357573
        },
        "meters": {
            "estimated_diameter_min": 27.8326768072,
            "estimated_diameter_max": 62.2357573367
        },
        "miles": {
            "estimated_diameter_min": 0.0172944182,
            "estimated_diameter_max": 0.0386714948
        },
        "feet": {
            "estimated_diameter_min": 91.3145593761,
            "estimated_diameter_max": 204.1855621004
        }
    },
    "is_potentially_hazardous_asteroid": false,
    "close_approach_data": [
        {
            "close_approach_date": "1978-10-20",
            "close_approach_date_full": "1978-Oct-20 01:18",
            "epoch_date_close_approach": 277694280000,
            "relative_velocity": {
                "kilometers_per_second": "18.3767880557",
                "kilometers_per_hour": "66156.437000358",
                "miles_per_hour": "41107.0372016947"
            },
            "miss_distance": {
                "astronomical": "0.3129629752",
                "lunar": "121.7425973528",
                "kilometers": "46818594.478782824",
                "miles": "29091725.6078740112"
            },
            "orbiting_body": "Earth"
        },
        {
            "close_approach_date": "1984-09-01",
            "close_approach_date_full": "1984-Sep-01 16:19",
            "epoch_date_close_approach": 462903540000,
            "relative_velocity": {
                "kilometers_per_second": "4.8039318008",
                "kilometers_per_hour": "17294.1544829649",
                "miles_per_hour": "10745.9150452623"
            },
            "miss_distance": {
                "astronomical": "1.9536967959",
                "lunar": "759.9880536051",
                "kilometers": "292268879.292464733",
                "miles": "181607460.3425019954"
            },
            "orbiting_body": "Juptr"
        },
        {
            "close_approach_date": "2016-12-26",
            "close_approach_date_full": "2016-Dec-26 03:24",
            "epoch_date_close_approach": 1482722640000,
            "relative_velocity": {
                "kilometers_per_second": "7.8378873747",
                "kilometers_per_hour": "28216.3945490908",
                "miles_per_hour": "17532.5702685726"
            },
            "miss_distance": {
                "astronomical": "0.0146599612",
                "lunar": "5.7027249068",
                "kilometers": "2193098.969802644",
                "miles": "1362728.5092747272"
            },
            "orbiting_body": "Earth"
        }
    ],
    "orbital_data": {
        "orbit_id": "9",
        "orbit_determination_date": "2020-09-22 06:44:26",
        "first_observation_date": "2017-01-04",
        "last_observation_date": "2017-02-01",
        "data_arc_in_days": 28,
        "observations_used": 62,
        "orbit_uncertainty": "7",
        "minimum_orbit_intersection": ".00685825",
        "jupiter_tisserand_invariant": "3.234",
        "epoch_osculation": "2459000.5",
        "eccentricity": ".5987799383202543",
        "semi_major_axis": "2.433508663791775",
        "inclination": ".6770072641464706",
        "ascending_node_longitude": "311.0444847184257",
        "orbital_period": "1386.589068487439",
        "perihelion_distance": ".9763724961847315",
        "perihelion_argument": "132.6912976080079",
        "aphelion_distance": "3.890644831398819",
        "perihelion_time": "2459132.041345022195",
        "mean_anomaly": "325.8479319618124",
        "mean_motion": ".2596299135638695",
        "equinox": "J2000",
        "orbit_class": {
            "orbit_class_type": "APO",
            "orbit_class_description": "Near-Earth asteroid orbits which cross the Earth’s orbit similar to that of 1862 Apollo",
            "orbit_class_range": "a (semi-major axis) > 1.0 AU; q (perihelion) < 1.017 AU"
        }
    },
    "is_sentry_object": false
}